M140 S60        ; стол: задать 60 °C и не ждать
M104 S215       ; сопло: задать 215 °C и не ждать
M190 S60        ; ждать, пока нагреется стол
M109 S215       ; ждать, пока нагреется сопло
G21             ; единицы — миллиметры
G90             ; абсолютные координаты X, Y, Z
M82             ; абсолютный режим E
G28             ; парковка всех осей
G92 E0          ; обнулить счётчик нити
; ---- слой 1 ----
G0 Z0.2 F3000
G0 X90 Y90 F6000
G1 X110 Y90 E0.6652 F1200
G1 X110 Y110 E1.3304
G1 X90 Y110 E1.9956
G1 X90 Y90 E2.6608
; ---- слой 2 ----
G0 Z0.4 F3000
G1 X110 Y90 E3.3260 F1200
G1 X110 Y110 E3.9912
G1 X90 Y110 E4.6564
G1 X90 Y90 E5.3216
; ---- финиш ----
M104 S0         ; выключить нагрев сопла
M140 S0         ; выключить нагрев стола
M84             ; отключить моторы
